$$SOE
2460721.500000000, A.D. 2025-Feb-15 00:00:00.0000, -1.892894860732661E+08, 2.857234192907665E+08, 1.698289630353163E+07,
2460728.500000000, A.D. 2025-Feb-22 00:00:00.0000, -1.988039991280560E+08, 2.785660667451740E+08, 1.804369581636977E+07,
2460735.500000000, A.D. 2025-Mar-01 00:00:00.0000, -2.080786818519250E+08, 2.710728137413779E+08, 1.908272865115163E+07,
2460742.500000000, A.D. 2025-Mar-08 00:00:00.0000, -2.171013649756787E+08, 2.632514117275164E+08, 2.009865125196281E+07,
2460749.500000000, A.D. 2025-Mar-15 00:00:00.0000, -2.258601007355909E+08, 2.551100887721903E+08, 2.109013872415331E+07,
2460756.500000000, A.D. 2025-Mar-22 00:00:00.0000, -2.343431851859809E+08, 2.466575457375599E+08, 2.205588720968138E+07,
2460763.500000000, A.D. 2025-Mar-29 00:00:00.0000, -2.425391792866849E+08, 2.379029492472984E+08, 2.299461597804466E+07,
2460770.500000000, A.D. 2025-Apr-05 00:00:00.0000, -2.504369283884422E+08, 2.288559245540704E+08, 2.390506945440558E+07,
2460777.500000000, A.D. 2025-Apr-12 00:00:00.0000, -2.580255819930678E+08, 2.195265483874254E+08, 2.478601936449544E+07,
2460784.500000000, A.D. 2025-Apr-19 00:00:00.0000, -2.652946139172067E+08, 2.099253408794598E+08, 2.563626693542066E+07,
2460791.500000000, A.D. 2025-Apr-26 00:00:00.0000, -2.722338425260278E+08, 2.000632563421599E+08, 2.645464510451502E+07,
2460798.500000000, A.D. 2025-May-03 00:00:00.0000, -2.788334508607395E+08, 1.899516728960364E+08, 2.724002072079340E+07,
2460805.500000000, A.D. 2025-May-10 00:00:00.0000, -2.850840065673509E+08, 1.796023809442923E+08, 2.799129673029421E+07,
2460812.500000000, A.D. 2025-May-17 00:00:00.0000, -2.909764815237573E+08, 1.690275704420733E+08, 2.870741433157984E+07,
2460819.500000000, A.D. 2025-May-24 00:00:00.0000, -2.965022709227325E+08, 1.582398169017392E+08, 2.938735507377713E+07,
2460826.500000000, A.D. 2025-May-31 00:00:00.0000, -3.016532113222749E+08, 1.472520664451137E+08, 3.003014287680672E+07,
2460833.500000000, A.D. 2025-Jun-07 00:00:00.0000, -3.064215979923307E+08, 1.360776211116706E+08, 3.063484610136814E+07,
2460840.500000000, A.D. 2025-Jun-14 00:00:00.0000, -3.108002038532499E+08, 1.247301237658076E+08, 3.120057982346341E+07,
2460847.500000000, A.D. 2025-Jun-21 00:00:00.0000, -3.147822987206908E+08, 1.132235393520661E+08, 3.172650792726727E+07,
2460854.500000000, A.D. 2025-Jun-28 00:00:00.0000, -3.183616656494601E+08, 1.015721342877070E+08, 3.221184486581688E+07,
2460861.500000000, A.D. 2025-Jul-05 00:00:00.0000, -3.215326158134861E+08, 8.979045617062396E+07, 3.265585739628522E+07,
2460868.500000000, A.D. 2025-Jul-12 00:00:00.0000, -3.242900030458298E+08, 7.789331302724411E+07, 3.305786632541706E+07,
2460875.500000000, A.D. 2025-Jul-19 00:00:00.0000, -3.266292377826405E+08, 6.589575156725441E+07, 3.341724819349243E+07,
2460882.500000000, A.D. 2025-Jul-26 00:00:00.0000, -3.285463001314764E+08, 5.381303443518107E+07, 3.373343686554639E+07,
2460889.500000000, A.D. 2025-Aug-02 00:00:00.0000, -3.300377519306667E+08, 4.166061653081683E+07, 3.400592501823355E+07,
2460896.500000000, A.D. 2025-Aug-09 00:00:00.0000, -3.311007477119951E+08, 2.945412043953585E+07, 3.423426551188824E+07,
2460903.500000000, A.D. 2025-Aug-16 00:00:00.0000, -3.317330444292211E+08, 1.720931097064936E+07, 3.441807262881615E+07,
2460910.500000000, A.D. 2025-Aug-23 00:00:00.0000, -3.319330096030008E+08, 4.942068887136906E+06, 3.455702314597687E+07,
2460917.500000000, A.D. 2025-Aug-30 00:00:00.0000, -3.316996275000163E+08, -7.331635387452250E+06, 3.465085726422303E+07,
2460924.500000000, A.D. 2025-Sep-06 00:00:00.0000, -3.310325047155035E+08, -1.959576700934301E+07, 3.469937960020371E+07,
2460931.500000000, A.D. 2025-Sep-13 00:00:00.0000, -3.299318767897025E+08, -3.183425330697782E+07, 3.470246018632488E+07,
2460938.500000000, A.D. 2025-Sep-20 00:00:00.0000, -3.283986125543692E+08, -4.403101328566604E+07, 3.466003504056429E+07,
2460945.500000000, A.D. 2025-Sep-27 00:00:00.0000, -3.264342151197507E+08, -5.616998684115856E+07, 3.457210645998091E+07,
2460952.500000000, A.D. 2025-Oct-04 00:00:00.0000, -3.240408214873860E+08, -6.823516305206190E+07, 3.443874326293832E+07,
2460959.500000000, A.D. 2025-Oct-11 00:00:00.0000, -3.212212011434292E+08, -8.021060840639968E+07, 3.426008093402797E+07,
2460966.500000000, A.D. 2025-Oct-18 00:00:00.0000, -3.179787533433347E+08, -9.208049514567932E+07, 3.403632162181746E+07,
2460973.500000000, A.D. 2025-Oct-25 00:00:00.0000, -3.143175029493740E+08, -1.038291296201142E+08, 3.376773397708400E+07,
2460980.500000000, A.D. 2025-Nov-01 00:00:00.0000, -3.102420947879596E+08, -1.154409805428751E+08, 3.345465282921024E+07,
2460987.500000000, A.D. 2025-Nov-08 00:00:00.0000, -3.057577865054232E+08, -1.269007070770139E+08, 3.309747869552278E+07,
2460994.500000000, A.D. 2025-Nov-15 00:00:00.0000, -3.008704397928559E+08, -1.381931867136108E+08, 3.269667710594249E+07,
2461001.500000000, A.D. 2025-Nov-22 00:00:00.0000, -2.955865095975711E+08, -1.493035426201089E+08, 3.225277772439605E+07,
2461008.500000000, A.D. 2025-Nov-29 00:00:00.0000, -2.899130314952315E+08, -1.602171692271875E+08, 3.176637337388761E+07,
2461015.500000000, A.D. 2025-Dec-06 00:00:00.0000, -2.838576095269158E+08, -1.709197561044089E+08, 3.123811916395328E+07,
2461022.500000000, A.D. 2025-Dec-13 00:00:00.0000, -2.774284041113626E+08, -1.813973134213587E+08, 3.066873140899619E+07,
2461029.500000000, A.D. 2025-Dec-20 00:00:00.0000, -2.706341166024556E+08, -1.916361979003008E+08, 3.005898610756409E+07,
2461036.500000000, A.D. 2025-Dec-27 00:00:00.0000, -2.634839716355459E+08, -2.016231365920280E+08, 2.940971730048066E+07,
2461043.500000000, A.D. 2026-Jan-03 00:00:00.0000, -2.559876987885430E+08, -2.113452490111108E+08, 2.872181539787511E+07,
2461050.500000000, A.D. 2026-Jan-10 00:00:00.0000, -2.481555135130210E+08, -2.207900682367281E+08, 2.799622541519751E+07,
2461057.500000000, A.D. 2026-Jan-17 00:00:00.0000, -2.399980971722595E+08, -2.299455610081632E+08, 2.723394509562727E+07,
2461064.500000000, A.D. 2026-Jan-24 00:00:00.0000, -2.315265761843009E+08, -2.388001467370073E+08, 2.643602292100620E+07,
2461071.500000000, A.D. 2026-Jan-31 00:00:00.0000, -2.227525003263651E+08, -2.473427153931760E+08, 2.560355601658624E+07,
2461078.500000000, A.D. 2026-Feb-07 00:00:00.0000, -2.136878202208850E+08, -2.555626442777739E+08, 2.473768794751240E+07,
2461085.500000000, A.D. 2026-Feb-14 00:00:00.0000, -2.043448638339623E+08, -2.634498136608120E+08, 2.383960639105555E+07,
2461092.500000000, A.D. 2026-Feb-21 00:00:00.0000, -1.947363116845308E+08, -2.709946206762518E+08, 2.291054070495845E+07,
2461099.500000000, A.D. 2026-Feb-28 00:00:00.0000, -1.848751719355810E+08, -2.781879902963048E+08, 2.195175959446837E+07,
2461106.500000000, A.D. 2026-Mar-07 00:00:00.0000, -1.747747575116349E+08, -2.850213853172202E+08, 2.096456891615871E+07,
2461113.500000000, A.D. 2026-Mar-14 00:00:00.0000, -1.644486625532394E+08, -2.914868176816980E+08, 1.995030918228535E+07,
2461120.500000000, A.D. 2026-Mar-21 00:00:00.0000, -1.539107365142641E+08, -2.975768582404162E+08, 1.891035284858185E+07,
2461127.500000000, A.D. 2026-Mar-28 00:00:00.0000, -1.431750579989735E+08, -3.032846439281359E+08, 1.784610166340458E+07,
2461134.500000000, A.D. 2026-Apr-04 00:00:00.0000, -1.322559090272357E+08, -3.086038833280618E+08, 1.675898406380713E+07,
2461141.500000000, A.D. 2026-Apr-11 00:00:00.0000, -1.211677495350533E+08, -3.135288609973863E+08, 1.565045257260275E+07,
2461148.500000000, A.D. 2026-Apr-18 00:00:00.0000, -1.099251920280111E+08, -3.180544405803674E+08, 1.452198118942001E+07,
2461155.500000000, A.D. 2026-Apr-25 00:00:00.0000, -9.854297641580978E+07, -3.221760667220651E+08, 1.337506278096199E+07,
2461162.500000000, A.D. 2026-May-02 00:00:00.0000, -8.703594506971422E+07, -3.258897658465726E+08, 1.221120647363523E+07,
2461169.500000000, A.D. 2026-May-09 00:00:00.0000, -7.541901804821989E+07, -3.291921459037904E+08, 1.103193503983252E+07,
2461176.500000000, A.D. 2026-May-16 00:00:00.0000, -6.370716817874666E+07, -3.320803949873282E+08, 9.838782261990651E+06,
2461183.500000000, A.D. 2026-May-23 00:00:00.0000, -5.191539600515922E+07, -3.345522778452330E+08, 8.633290360053167E+06,
2461190.500000000, A.D. 2026-May-30 00:00:00.0000, -4.005870673705380E+07, -3.366061300095511E+08, 7.417007705163926E+06,
2461197.500000000, A.D. 2026-Jun-06 00:00:00.0000, -2.815208957029237E+07, -3.382408528652010E+08, 6.191486586394861E+06,
2461204.500000000, A.D. 2026-Jun-13 00:00:00.0000, -1.621049576042072E+07, -3.394559095105136E+08, 4.958280715369642E+06,
2461211.500000000, A.D. 2026-Jun-20 00:00:00.0000, -4.248815994282447E+06, -3.402513185367520E+08, 3.718942758548900E+06,
2461218.500000000, A.D. 2026-Jun-27 00:00:00.0000, 7.718141203093362E+06, -3.406276461184531E+08, 2.475022029464021E+06,
2461225.500000000, A.D. 2026-Jul-04 00:00:00.0000, 1.967566999460289E+07, -3.405859972418278E+08, 1.228062281547844E+06,
2461232.500000000, A.D. 2026-Jul-11 00:00:00.0000, 3.160918691873643E+07, -3.401280062580502E+08, -2.040042878702283E+04,
2461239.500000000, A.D. 2026-Jul-18 00:00:00.0000, 4.350424981115684E+07, -3.392558267934104E+08, -1.268839812007636E+06,
2461246.500000000, A.D. 2026-Jul-25 00:00:00.0000, 5.534657596863542E+07, -3.379721210741534E+08, -2.515741347752929E+06,
2461253.500000000, A.D. 2026-Aug-01 00:00:00.0000, 6.712205959027280E+07, -3.362800487778416E+08, -3.759604225894079E+06,
2461260.500000000, A.D. 2026-Aug-08 00:00:00.0000, 7.881678869785471E+07, -3.341832555117251E+08, -4.998943247306213E+06,
2461267.500000000, A.D. 2026-Aug-15 00:00:00.0000, 9.041706193668903E+07, -3.316858605281063E+08, -6.232290684330836E+06,
2461274.500000000, A.D. 2026-Aug-22 00:00:00.0000, 1.019094044835964E+08, -3.287924425072578E+08, -7.458197930533454E+06,
2461281.500000000, A.D. 2026-Aug-29 00:00:00.0000, 1.132805807662834E+08, -3.255080248223741E+08, -8.675236841705754E+06,
2461288.500000000, A.D. 2026-Sep-05 00:00:00.0000, 1.245176061320900E+08, -3.218380631921860E+08, -9.882001198358834E+06,
$$EOE